ONEWEB-0553             
1 56055U 23043K   24099.54190832 -.00000303  00000+0 -82615-3 0  9991
2 56055  87.9141  27.9335 0002291  85.5923 274.5469 13.16594473 53758
ONEWEB-0554             
1 56056U 23043L   24099.52924102 -.00000012  00000+0 -64623-4 0  9992
2 56056  87.9145  27.9555 0001938  57.3923 302.7395 13.16596645 53734
ONEWEB-0555             
1 56057U 23043M   24099.49125051 -.00000008  00000+0 -55810-4 0  9998
2 56057  87.9144  27.9364 0002609  76.8333 283.3089 13.16592671 53738
ONEWEB-0557             
1 56058U 23043N   24100.03747318  .00000057  00000+0  11580-3 0  9995
2 56058  87.9143  27.8538 0002901  67.9471 292.1968 13.16597528 53807
ONEWEB-0558             
1 56059U 23043P   24099.55866782  .00000127  00000+0  27603-3 0  9998
2 56059  87.9295  43.1319 0001509  90.1008 270.0299 13.21824045 53514
ONEWEB-0559             
1 56060U 23043Q   24100.07750689 -.00000022  00000+0 -83788-4 0  9991
2 56060  87.9296  43.0277 0001407  66.4319 293.6963 13.21825168 53591
ONEWEB-0566             
1 56061U 23043R   24100.52537892  .00000008  00000+0 -12333-4 0  9992
2 56061  87.9296  42.9395 0001270  93.2047 266.9232 13.21826498 53639
ONEWEB-0568             
1 56062U 23043S   24099.52291257  .00000039  00000+0  68609-4 0  9992
2 56062  87.9142  27.9203 0002281  81.2038 278.9351 13.16596578 53756
